SES-7 (PROTOSTAR 2)     
1 34941U 09027A   26062.96448998 -.00000358  00000+0  00000+0 0  9997
2 34941   0.0210 105.9616 0001523 200.1229 311.1004  1.00271899 61577
MEASAT-3A               
1 35362U 09032A   26062.90347634 -.00000124  00000+0  00000+0 0  9991
2 35362   0.0444 343.9953 0003538   5.6835 297.2188  1.00271643  6978
GOES 14                 
1 35491U 09033A   26063.12567421  .00000116  00000+0  00000+0 0  9998
2 35491   1.4182  84.4254 0002238 297.9403  26.7353  1.00124205  5530
FM-5                    
1 35493U 09034A   26063.17405784 -.00000212  00000+0  00000+0 0  9997
2 35493   0.0402 274.4593 0000874 318.2450 265.7065  1.00270259 45598
TERRESTAR-1             
1 35496U 09035A   26062.56445392 -.00000068  00000+0  00000+0 0  9991
2 35496   5.0935  48.8335 0002899 301.5224 263.1652  1.00271520 61074
ASIASAT 5               
1 35696U 09042A   26063.16641990 -.00000320  00000+0  00000+0 0  9991
2 35696   0.0278 234.1761 0001469  97.0255 351.1431  1.00271762 60651
JCSAT-12 (JCSAT-RA)     
1 35755U 09044A   26062.96917000 -.00000341  00000+0  00000+0 0  9997
2 35755   0.0207 116.6331 0001981 184.4336 341.5898  1.00271026 60558
OPTUS D3                
1 35756U 09044B   26062.39617829 -.00000162  00000+0  00000+0 0  9992
2 35756   0.8832 269.6813 0003095  67.3931 122.8008  1.00270848 60502
NIMIQ 5                 
1 35873U 09050A   26063.15600580 -.00000269  00000+0  00000+0 0  9998
2 35873   0.0537 271.2563 0002655  72.6011 161.4903  1.00273209 60299
AMAZONAS 2              
1 35942U 09054A   26063.15044814 -.00000295  00000+0  00000+0 0  9990
2 35942   1.5427  84.4755 0003479 258.9264 171.8575  1.00272824 60136
COMSATBW-1              
1 35943U 09054B   26063.09811409  .00000011  00000+0  00000+0 0  9991
2 35943   0.0202 100.5309 0003654 261.0162 258.6269  1.00276456 60256
NSS-12                  
1 36032U 09058A   26063.09698742  .00000059  00000+0  00000+0 0  9990
2 36032   0.0269 288.7402 0005013  39.1040 285.9038  1.00272394 59861
THOR 6                  
1 36033U 09058B   26063.15678770 -.00000022  00000+0  00000+0 0  9998
2 36033   0.0347 249.0620 0001916 108.6949 219.7416  1.00272063 59957
INTELSAT 14 (IS-14)     
1 36097U 09064A   26063.08030776 -.00000286  00000+0  00000+0 0  9997
2 36097   0.0195  94.3366 0002592 263.7312 147.6629  1.00271364 59558
EUTELSAT 36B            
1 36101U 09065A   26063.09568740  .00000100  00000+0  00000+0 0  9996
2 36101   0.2262  77.5548 0005875 267.2251 261.9811  1.00271585 59653
INTELSAT 15 (IS-15)     
1 36106U 09067A   26063.10253411 -.00000197  00000+0  00000+0 0  9998
2 36106   0.0155 227.9347 0002396 125.2874 290.6758  1.00270085 40174
DIRECTV 12              
1 36131U 09075A   26063.13668093 -.00000116  00000+0  00000+0 0  9995
2 36131   0.0187 330.2938 0000345  34.9528 103.1258  1.00271958 45500
